2025-155V               
1 64895U 25155V   26068.85787115  .00013705  00000+0  51002-3 0  9990
2 64895  97.4485  37.2490 0008035 152.8264 207.3397 15.27583301 65579
STARLINK-36540          
1 67511U 26012U   26068.39742260  .00029617  00000+0  10815-2 0  9997
2 67511  42.9903 316.3747 0000993 107.9726 252.1234 15.27578005  7717
